ONEWEB-0597             
1 54663U 22166X   25128.61351079  .00000029  00000+0  37549-4 0  9993
2 54663  87.9256 324.6738 0001895  82.6619 277.4730 13.21822845118568
ONEWEB-0600             
1 54664U 22166Y   25128.59618164  .00000039  00000+0  63214-4 0  9991
2 54664  87.9236 324.6876 0001779  83.2887 276.8450 13.21825364118061
ONEWEB-0601             
1 54665U 22166Z   25128.58828662  .00000073  00000+0  14451-3 0  9993
2 54665  87.9256 324.6889 0002156  82.2030 277.9348 13.21828563118250
ONEWEB-0602             
1 54666U 22166AA  25128.55360281  .00000084  00000+0  17270-3 0  9993
2 54666  87.9255 324.6969 0001845  80.3928 279.7414 13.21826786118561
ONEWEB-0603             
1 54667U 22166AB  25128.55831695  .00000123  00000+0  26689-3 0  9994
2 54667  87.9228 324.6510 0001987  80.9636 279.1722 13.21826712118029
ONEWEB-0604             
1 54668U 22166AC  25128.54570668  .00000056  00000+0  10398-3 0  9999
2 54668  87.9250 324.6618 0001824  80.5234 279.6106 13.21827949117982
ONEWEB-0605             
1 54669U 22166AD  25128.61509752  .00000048  00000+0  85140-4 0  9993
2 54669  87.9249 324.6788 0002546  84.3402 275.8022 13.21827843118068
ONEWEB-0606             
1 54670U 22166AE  25128.56148175  .00000082  00000+0  16706-3 0  9996
2 54670  87.9254 324.6977 0001708  94.1535 265.9794 13.21828538118115
